[
  {
    "ORDINAL": "1",
    "COMMENT": "GENERATED VIA SPACETRACK.ORG API",
    "ORIGINATOR": "18 SPCS",
    "NORAD_CAT_ID": "360",
    "OBJECT_NAME": "FTV 1152",
    "OBJECT_TYPE": "PAYLOAD",
    "CLASSIFICATION_TYPE": "U",
    "INTLDES": "62034A",
    "EPOCH": "1962-08-24 19:54:54",
    "EPOCH_MICROSECONDS": "754560",
    "MEAN_MOTION": "16.25584046",
    "ECCENTRICITY": "0.0015843",
    "INCLINATION": "82.2456",
    "RA_OF_ASC_NODE": "353.9472",
    "ARG_OF_PERICENTER": "70.8433",
    "MEAN_ANOMALY": "172.0392",
    "EPHEMERIS_TYPE": "0",
    "ELEMENT_SET_NO": "999",
    "REV_AT_EPOCH": "365",
    "BSTAR": "0",
    "MEAN_MOTION_DOT": "0.02888713",
    "MEAN_MOTION_DDOT": "0.016839",
    "FILE": "33908",
    "TLE_LINE0": "0 FTV 1152",
    "TLE_LINE1": "1 00360U 62034  A 62236.82980040  .02888713 +16839-1 +00000-0 0  9999",
    "TLE_LINE2": "2 00360 082.2456 353.9472 0015843 070.8433 172.0392 16.25584046003656",
    "OBJECT_ID": "1962-034A",
    "OBJECT_NUMBER": "360",
    "SEMIMAJOR_AXIS": "6582.575",
    "PERIOD": "88.584",
    "APOGEE": "214.869",
    "PERIGEE": "194.011",
    "DECAYED": "1"
  },
  {
    "ORDINAL": "1",
    "COMMENT": "GENERATED VIA SPACETRACK.ORG API",
    "ORIGINATOR": "18 SPCS",
    "NORAD_CAT_ID": "361",
    "OBJECT_NAME": "SAMOS 10 (FTV 2404)",
    "OBJECT_TYPE": "PAYLOAD",
    "CLASSIFICATION_TYPE": "U",
    "INTLDES": "62035A",
    "EPOCH": "1962-08-05 23:22:11",
    "EPOCH_MICROSECONDS": "66880",
    "MEAN_MOTION": "16.26151854",
    "ECCENTRICITY": "0.0000006",
    "INCLINATION": "96.3",
    "RA_OF_ASC_NODE": "281.7531",
    "ARG_OF_PERICENTER": "163.6338",
    "MEAN_ANOMALY": "336.093",
    "EPHEMERIS_TYPE": "0",
    "ELEMENT_SET_NO": "999",
    "REV_AT_EPOCH": "4",
    "BSTAR": "0",
    "MEAN_MOTION_DOT": "0.02150073",
    "MEAN_MOTION_DDOT": "0",
    "FILE": "33908",
    "TLE_LINE0": "0 SAMOS 10 (FTV 2404)",
    "TLE_LINE1": "1 00361U 62035  A 62217.97373920  .02150073 +00000-0 +00000-0 0  9992",
    "TLE_LINE2": "2 00361 096.3000 281.7531 0000006 163.6338 336.0930 16.26151854000040",
    "OBJECT_ID": "1962-035A",
    "OBJECT_NUMBER": "361",
    "SEMIMAJOR_AXIS": "6581.043",
    "PERIOD": "88.553",
    "APOGEE": "202.912",
    "PERIGEE": "202.904",
    "DECAYED": "1"
  },
  {
    "ORDINAL": "1",
    "COMMENT": "GENERATED VIA SPACETRACK.ORG API",
    "ORIGINATOR": "18 SPCS",
    "NORAD_CAT_ID": "362",
    "OBJECT_NAME": "FTV 1152 DEB",
    "OBJECT_TYPE": "DEBRIS",
    "CLASSIFICATION_TYPE": "U",
    "INTLDES": "62034B",
    "EPOCH": "1962-08-06 02:04:22",
    "EPOCH_MICROSECONDS": "894175",
    "MEAN_MOTION": "15.70554558",
    "ECCENTRICITY": "0.0232555",
    "INCLINATION": "82.2026",
    "RA_OF_ASC_NODE": "15.6934",
    "ARG_OF_PERICENTER": "138.055",
    "MEAN_ANOMALY": "64.3378",
    "EPHEMERIS_TYPE": "0",
    "ELEMENT_SET_NO": "999",
    "REV_AT_EPOCH": "65",
    "BSTAR": "0",
    "MEAN_MOTION_DOT": "0.07092781",
    "MEAN_MOTION_DDOT": "0",
    "FILE": "33908",
    "TLE_LINE0": "0 FTV 1152 DEB",
    "TLE_LINE1": "1 00362U 62034  B 62218.08637609  .07092781 +00000-0 +00000-0 0  9998",
    "TLE_LINE2": "2 00362 082.2026 015.6934 0232555 138.0550 064.3378 15.70554558000652",
    "OBJECT_ID": "1962-034B",
    "OBJECT_NUMBER": "362",
    "SEMIMAJOR_AXIS": "6735.452",
    "PERIOD": "91.687",
    "APOGEE": "513.954",
    "PERIGEE": "200.681",
    "DECAYED": "1"
  },
  {
    "ORDINAL": "1",
    "COMMENT": "GENERATED VIA SPACETRACK.ORG API",
    "ORIGINATOR": "18 SPCS",
    "NORAD_CAT_ID": "363",
    "OBJECT_NAME": "VOSTOK 3",
    "OBJECT_TYPE": "PAYLOAD",
    "CLASSIFICATION_TYPE": "U",
    "INTLDES": "62036A",
    "EPOCH": "1962-08-14 01:03:57",
    "EPOCH_MICROSECONDS": "533759",
    "MEAN_MOTION": "16.34937053",
    "ECCENTRICITY": "0.0031811",
    "INCLINATION": "64.9574",
    "RA_OF_ASC_NODE": "112.3949",
    "ARG_OF_PERICENTER": "91.5844",
    "MEAN_ANOMALY": "268.7947",
    "EPHEMERIS_TYPE": "0",
    "ELEMENT_SET_NO": "999",
    "REV_AT_EPOCH": "44",
    "BSTAR": "0",
    "MEAN_MOTION_DOT": "0.00777458",
    "MEAN_MOTION_DDOT": "0",
    "FILE": "33908",
    "TLE_LINE0": "0 VOSTOK 3",
    "TLE_LINE1": "1 00363U 62036  A 62226.04441590  .00777458 +00000-0 +00000-0 0  9992",
    "TLE_LINE2": "2 00363 064.9574 112.3949 0031811 091.5844 268.7947 16.34937053000445",
    "OBJECT_ID": "1962-036A",
    "OBJECT_NUMBER": "363",
    "SEMIMAJOR_AXIS": "6557.447",
    "PERIOD": "88.077",
    "APOGEE": "200.171",
    "PERIGEE": "158.452",
    "DECAYED": "1"
  },
  {
    "ORDINAL": "1",
    "COMMENT": "GENERATED VIA SPACETRACK.ORG API",
    "ORIGINATOR": "18 SPCS",
    "NORAD_CAT_ID": "364",
    "OBJECT_NAME": "SL-3 R/B",
    "OBJECT_TYPE": "ROCKET BODY",
    "CLASSIFICATION_TYPE": "U",
    "INTLDES": "62036B",
    "EPOCH": "1962-08-13 02:58:12",
    "EPOCH_MICROSECONDS": "250559",
    "MEAN_MOTION": "16.45219833",
    "ECCENTRICITY": "0",
    "INCLINATION": "64.8177",
    "RA_OF_ASC_NODE": "115.9016",
    "ARG_OF_PERICENTER": "85.1026",
    "MEAN_ANOMALY": "24.1194",
    "EPHEMERIS_TYPE": "0",
    "ELEMENT_SET_NO": "999",
    "REV_AT_EPOCH": "29",
    "BSTAR": "0",
    "MEAN_MOTION_DOT": "0.06547488",
    "MEAN_MOTION_DDOT": "0",
    "FILE": "33908",
    "TLE_LINE0": "0 SL-3 R/B",
    "TLE_LINE1": "1 00364U 62036  B 62225.12375290  .06547488 +00000-0 +00000-0 0  9998",
    "TLE_LINE2": "2 00364 064.8177 115.9016 0000000 085.1026 024.1194 16.45219833000297",
    "OBJECT_ID": "1962-036B",
    "OBJECT_NUMBER": "364",
    "SEMIMAJOR_AXIS": "6530.095",
    "PERIOD": "87.526",
    "APOGEE": "151.960",
    "PERIGEE": "151.960",
    "DECAYED": "1"
  },
  {
    "ORDINAL": "1",
    "COMMENT": "GENERATED VIA SPACETRACK.ORG API",
    "ORIGINATOR": "18 SPCS",
    "NORAD_CAT_ID": "365",
    "OBJECT_NAME": "VOSTOK 4",
    "OBJECT_TYPE": "PAYLOAD",
    "CLASSIFICATION_TYPE": "U",
    "INTLDES": "62037A",
    "EPOCH": "1962-08-14 01:07:14",
    "EPOCH_MICROSECONDS": "117952",
    "MEAN_MOTION": "16.32289505",
    "ECCENTRICITY": "0.0035705",
    "INCLINATION": "64.9972",
    "RA_OF_ASC_NODE": "110.2319",
    "ARG_OF_PERICENTER": "89.4962",
    "MEAN_ANOMALY": "270.9128",
    "EPHEMERIS_TYPE": "0",
    "ELEMENT_SET_NO": "999",
    "REV_AT_EPOCH": "28",
    "BSTAR": "0",
    "MEAN_MOTION_DOT": "0.00573069",
    "MEAN_MOTION_DDOT": "0",
    "FILE": "33908",
    "TLE_LINE0": "0 VOSTOK 4",
    "TLE_LINE1": "1 00365U 62037  A 62226.04669118  .00573069 +00000-0 +00000-0 0  9995",
    "TLE_LINE2": "2 00365 064.9972 110.2319 0035705 089.4962 270.9128 16.32289505000288",
    "OBJECT_ID": "1962-037A",
    "OBJECT_NUMBER": "365",
    "SEMIMAJOR_AXIS": "6564.535",
    "PERIOD": "88.220",
    "APOGEE": "209.839",
    "PERIGEE": "162.962",
    "DECAYED": "1"
  },
  {
    "ORDINAL": "1",
    "COMMENT": "GENERATED VIA SPACETRACK.ORG API",
    "ORIGINATOR": "18 SPCS",
    "NORAD_CAT_ID": "366",
    "OBJECT_NAME": "SL-3 R/B",
    "OBJECT_TYPE": "ROCKET BODY",
    "CLASSIFICATION_TYPE": "U",
    "INTLDES": "62037B",
    "EPOCH": "1962-08-14 06:56:17",
    "EPOCH_MICROSECONDS": "841695",
    "MEAN_MOTION": "16.45047839",
    "ECCENTRICITY": "0.00318",
    "INCLINATION": "64.96",
    "RA_OF_ASC_NODE": "111.4636",
    "ARG_OF_PERICENTER": "91.4693",
    "MEAN_ANOMALY": "23.3561",
    "EPHEMERIS_TYPE": "0",
    "ELEMENT_SET_NO": "999",
    "REV_AT_EPOCH": "32",
    "BSTAR": "0",
    "MEAN_MOTION_DOT": "0.07108633",
    "MEAN_MOTION_DDOT": "0",
    "FILE": "33908",
    "TLE_LINE0": "0 SL-3 R/B",
    "TLE_LINE1": "1 00366U 62037  B 62226.28909539  .07108633 +00000-0 +00000-0 0  9994",
    "TLE_LINE2": "2 00366 064.9600 111.4636 0031800 091.4693 023.3561 16.45047839000320",
    "OBJECT_ID": "1962-037B",
    "OBJECT_NUMBER": "366",
    "SEMIMAJOR_AXIS": "6530.550",
    "PERIOD": "87.535",
    "APOGEE": "173.182",
    "PERIGEE": "131.648",
    "DECAYED": "1"
  },
  {
    "ORDINAL": "1",
    "COMMENT": "GENERATED VIA SPACETRACK.ORG API",
    "ORIGINATOR": "18 SPCS",
    "NORAD_CAT_ID": "367",
    "OBJECT_NAME": "COSMOS 8 (SPUTNIK 18)",
    "OBJECT_TYPE": "PAYLOAD",
    "CLASSIFICATION_TYPE": "U",
    "INTLDES": "62038A",
    "EPOCH": "1963-08-16 00:17:05",
    "EPOCH_MICROSECONDS": "723519",
    "MEAN_MOTION": "16.35614511",
    "ECCENTRICITY": "0.0015351",
    "INCLINATION": "48.9173",
    "RA_OF_ASC_NODE": "177.3722",
    "ARG_OF_PERICENTER": "52.3843",
    "MEAN_ANOMALY": "307.7549",
    "EPHEMERIS_TYPE": "0",
    "ELEMENT_SET_NO": "999",
    "REV_AT_EPOCH": "5714",
    "BSTAR": "0",
    "MEAN_MOTION_DOT": "0.01650033",
    "MEAN_MOTION_DDOT": "0",
    "FILE": "33909",
    "TLE_LINE0": "0 COSMOS 8 (SPUTNIK 18)",
    "TLE_LINE1": "1 00367U 62038  A 63228.01187180  .01650033 +00000-0 +00000-0 0  9990",
    "TLE_LINE2": "2 00367 048.9173 177.3722 0015351 052.3843 307.7549 16.35614511057144",
    "OBJECT_ID": "1962-038A",
    "OBJECT_NUMBER": "367",
    "SEMIMAJOR_AXIS": "6555.636",
    "PERIOD": "88.040",
    "APOGEE": "187.564",
    "PERIGEE": "167.437",
    "DECAYED": "1"
  }
]
